STARLINK-33622          
1 63066U 25035Q   25282.06390438  .00026429  00000+0  96666-3 0  9996
2 63066  43.0041 283.1090 0001606 279.1888  80.8782 15.27574098 36543
STARLINK-33628          
1 63067U 25035R   25282.29604564  .00027051  00000+0  98915-3 0  9991
2 63067  43.0051 282.2777 0002340 277.3416  82.7169 15.27571867 36574
STARLINK-33627          
1 63068U 25035S   25282.28833500  .00025097  00000+0  91861-3 0  9996
2 63068  43.0020 282.2170 0002214 263.6600  96.3999 15.27573007 36560
STARLINK-33620          
1 63069U 25035T   25282.28448273  .00025414  00000+0  93024-3 0  9992
2 63069  43.0044 282.1933 0001078 281.1376  78.9354 15.27566975 36562
STARLINK-33604          
1 63070U 25035U   25282.31018150  .00021655  00000+0  79434-3 0  9997
2 63070  42.9935 282.3797 0000650 296.6737  63.4048 15.27571516 36564
STARLINK-33624          
1 63071U 25035V   25282.29650862  .00004507  00000+0  17347-3 0  9999
2 63071  43.0012 278.8072 0001604 267.1221  92.9447 15.27526705 36504
STARLINK-33623          
1 63072U 25035W   25282.30375606  .00037826  00000+0  13763-2 0  9999
2 63072  43.0011 282.3329 0001425 253.2906 106.7790 15.27597885 36575
STARLINK-33586          
1 63073U 25035X   25282.00719369  .00043934  00000+0  15956-2 0  9998
2 63073  42.9970 276.6119 0000353 211.3163 148.7668 15.27599705 36618
STARLINK-33605          
1 63074U 25035Y   25282.00494293  .00030979  00000+0  11296-2 0  9993
2 63074  43.0044 283.5273 0000891 275.9873  84.0877 15.27607852 36529
STARLINK-32839          
1 63077U 25037A   25282.23645847  .00004548  00000+0  38853-3 0  9998
2 63077  70.0041  16.4177 0002634 258.5665 101.5199 14.98348815 35909
STARLINK-32821          
1 63078U 25037B   25282.23629113  .00000741  00000+0  69845-4 0  9994
2 63078  70.0069  16.4095 0001531 265.5678  94.5306 14.98356570 35904
STARLINK-32817          
1 63079U 25037C   25282.27382825  .00004891  00000+0  41757-3 0  9996
2 63079  70.0016  16.1376 0003124 259.7104 100.3703 14.98316317 35918
STARLINK-32906          
1 63080U 25037D   25282.25314686 -.00010065  00000+0 -83710-3 0  9993
2 63080  70.0026  16.4686 0003547 271.3521  88.7231 14.98319741 35919
STARLINK-32895          
1 63081U 25037E   25281.98176541  .00002135  00000+0  18666-3 0  9994
2 63081  70.0045  17.1282 0002462 275.8097  84.2781 14.98339381 35736
STARLINK-32933          
1 63082U 25037F   25282.29068891  .00007179  00000+0  60877-3 0  9992
2 63082  70.0023  16.1931 0003672 277.5056  82.5686 14.98333755 35869
STARLINK-32932          
1 63083U 25037G   25282.22793800  .00004217  00000+0  36098-3 0  9999
2 63083  70.0038  16.3856 0003222 280.3673  79.7122 14.98332654 35772
