[{"OBJECT_NAME":"STARLINK-33622","OBJECT_ID":"2025-035Q","EPOCH":"2025-10-09T01:32:01.338432","MEAN_MOTION":15.27574098,"ECCENTRICITY":0.00016069,"INCLINATION":43.0041,"RA_OF_ASC_NODE":283.109,"ARG_OF_PERICENTER":279.1888,"MEAN_ANOMALY":80.8782,"EPHEMERIS_TYPE":0,"CLASSIFICATION_TYPE":"U","NORAD_CAT_ID":63066,"ELEMENT_SET_NO":999,"REV_AT_EPOCH":3654,"BSTAR":0.00096666415,"MEAN_MOTION_DOT":0.00026429,"MEAN_MOTION_DDOT":0},{"OBJECT_NAME":"STARLINK-33628","OBJECT_ID":"2025-035R","EPOCH":"2025-10-09T07:06:18.343296","MEAN_MOTION":15.27571867,"ECCENTRICITY":0.00023404,"INCLINATION":43.0051,"RA_OF_ASC_NODE":282.2777,"ARG_OF_PERICENTER":277.3416,"MEAN_ANOMALY":82.7169,"EPHEMERIS_TYPE":0,"CLASSIFICATION_TYPE":"U","NORAD_CAT_ID":63067,"ELEMENT_SET_NO":999,"REV_AT_EPOCH":3657,"BSTAR":0.00098914668,"MEAN_MOTION_DOT":0.00027051,"MEAN_MOTION_DDOT":0},{"OBJECT_NAME":"STARLINK-33627","OBJECT_ID":"2025-035S","EPOCH":"2025-10-09T06:55:12.144000","MEAN_MOTION":15.27573007,"ECCENTRICITY":0.00022145,"INCLINATION":43.002,"RA_OF_ASC_NODE":282.217,"ARG_OF_PERICENTER":263.66,"MEAN_ANOMALY":96.3999,"EPHEMERIS_TYPE":0,"CLASSIFICATION_TYPE":"U","NORAD_CAT_ID":63068,"ELEMENT_SET_NO":999,"REV_AT_EPOCH":3656,"BSTAR":0.00091861321,"MEAN_MOTION_DOT":0.00025097,"MEAN_MOTION_DDOT":0},{"OBJECT_NAME":"STARLINK-33620","OBJECT_ID":"2025-035T","EPOCH":"2025-10-09T06:49:39.307872","MEAN_MOTION":15.27566975,"ECCENTRICITY":0.00010787,"INCLINATION":43.0044,"RA_OF_ASC_NODE":282.1933,"ARG_OF_PERICENTER":281.1376,"MEAN_ANOMALY":78.9354,"EPHEMERIS_TYPE":0,"CLASSIFICATION_TYPE":"U","NORAD_CAT_ID":63069,"ELEMENT_SET_NO":999,"REV_AT_EPOCH":3656,"BSTAR":0.00093024448,"MEAN_MOTION_DOT":0.00025414,"MEAN_MOTION_DDOT":0},{"OBJECT_NAME":"STARLINK-33604","OBJECT_ID":"2025-035U","EPOCH":"2025-10-09T07:26:39.681600","MEAN_MOTION":15.27571516,"ECCENTRICITY":6.506e-5,"INCLINATION":42.9935,"RA_OF_ASC_NODE":282.3797,"ARG_OF_PERICENTER":296.6737,"MEAN_ANOMALY":63.4048,"EPHEMERIS_TYPE":0,"CLASSIFICATION_TYPE":"U","NORAD_CAT_ID":63070,"ELEMENT_SET_NO":999,"REV_AT_EPOCH":3656,"BSTAR":0.00079434165,"MEAN_MOTION_DOT":0.00021655,"MEAN_MOTION_DDOT":0},{"OBJECT_NAME":"STARLINK-33624","OBJECT_ID":"2025-035V","EPOCH":"2025-10-09T07:06:58.344768","MEAN_MOTION":15.27526705,"ECCENTRICITY":0.00016047,"INCLINATION":43.0012,"RA_OF_ASC_NODE":278.8072,"ARG_OF_PERICENTER":267.1221,"MEAN_ANOMALY":92.9447,"EPHEMERIS_TYPE":0,"CLASSIFICATION_TYPE":"U","NORAD_CAT_ID":63071,"ELEMENT_SET_NO":999,"REV_AT_EPOCH":3650,"BSTAR":0.00017347448,"MEAN_MOTION_DOT":4.507e-5,"MEAN_MOTION_DDOT":0},{"OBJECT_NAME":"STARLINK-33623","OBJECT_ID":"2025-035W","EPOCH":"2025-10-09T07:17:24.523584","MEAN_MOTION":15.27597885,"ECCENTRICITY":0.0001425,"INCLINATION":43.0011,"RA_OF_ASC_NODE":282.3329,"ARG_OF_PERICENTER":253.2906,"MEAN_ANOMALY":106.779,"EPHEMERIS_TYPE":0,"CLASSIFICATION_TYPE":"U","NORAD_CAT_ID":63072,"ELEMENT_SET_NO":999,"REV_AT_EPOCH":3657,"BSTAR":0.0013763024,"MEAN_MOTION_DOT":0.00037826,"MEAN_MOTION_DDOT":0},{"OBJECT_NAME":"STARLINK-33586","OBJECT_ID":"2025-035X","EPOCH":"2025-10-09T00:10:21.534816","MEAN_MOTION":15.27599705,"ECCENTRICITY":3.532e-5,"INCLINATION":42.997,"RA_OF_ASC_NODE":276.6119,"ARG_OF_PERICENTER":211.3163,"MEAN_ANOMALY":148.7668,"EPHEMERIS_TYPE":0,"CLASSIFICATION_TYPE":"U","NORAD_CAT_ID":63073,"ELEMENT_SET_NO":999,"REV_AT_EPOCH":3661,"BSTAR":0.0015956239,"MEAN_MOTION_DOT":0.00043934,"MEAN_MOTION_DDOT":0},{"OBJECT_NAME":"STARLINK-33605","OBJECT_ID":"2025-035Y","EPOCH":"2025-10-09T00:07:07.069152","MEAN_MOTION":15.27607852,"ECCENTRICITY":8.915e-5,"INCLINATION":43.0044,"RA_OF_ASC_NODE":283.5273,"ARG_OF_PERICENTER":275.9873,"MEAN_ANOMALY":84.0877,"EPHEMERIS_TYPE":0,"CLASSIFICATION_TYPE":"U","NORAD_CAT_ID":63074,"ELEMENT_SET_NO":999,"REV_AT_EPOCH":3652,"BSTAR":0.001129589,"MEAN_MOTION_DOT":0.00030979,"MEAN_MOTION_DDOT":0},{"OBJECT_NAME":"STARLINK-32839","OBJECT_ID":"2025-037A","EPOCH":"2025-10-09T05:40:30.011808","MEAN_MOTION":14.98348815,"ECCENTRICITY":0.00026345,"INCLINATION":70.0041,"RA_OF_ASC_NODE":16.4177,"ARG_OF_PERICENTER":258.5665,"MEAN_ANOMALY":101.5199,"EPHEMERIS_TYPE":0,"CLASSIFICATION_TYPE":"U","NORAD_CAT_ID":63077,"ELEMENT_SET_NO":999,"REV_AT_EPOCH":3590,"BSTAR":0.00038852765,"MEAN_MOTION_DOT":4.548e-5,"MEAN_MOTION_DDOT":0},{"OBJECT_NAME":"STARLINK-32821","OBJECT_ID":"2025-037B","EPOCH":"2025-10-09T05:40:15.553632","MEAN_MOTION":14.9835657,"ECCENTRICITY":0.00015314,"INCLINATION":70.0069,"RA_OF_ASC_NODE":16.4095,"ARG_OF_PERICENTER":265.5678,"MEAN_ANOMALY":94.5306,"EPHEMERIS_TYPE":0,"CLASSIFICATION_TYPE":"U","NORAD_CAT_ID":63078,"ELEMENT_SET_NO":999,"REV_AT_EPOCH":3590,"BSTAR":6.9844911e-5,"MEAN_MOTION_DOT":7.41e-6,"MEAN_MOTION_DDOT":0},{"OBJECT_NAME":"STARLINK-32817","OBJECT_ID":"2025-037C","EPOCH":"2025-10-09T06:34:18.760800","MEAN_MOTION":14.98316317,"ECCENTRICITY":0.00031249,"INCLINATION":70.0016,"RA_OF_ASC_NODE":16.1376,"ARG_OF_PERICENTER":259.7104,"MEAN_ANOMALY":100.3703,"EPHEMERIS_TYPE":0,"CLASSIFICATION_TYPE":"U","NORAD_CAT_ID":63079,"ELEMENT_SET_NO":999,"REV_AT_EPOCH":3591,"BSTAR":0.00041757326,"MEAN_MOTION_DOT":4.891e-5,"MEAN_MOTION_DDOT":0},{"OBJECT_NAME":"STARLINK-32906","OBJECT_ID":"2025-037D","EPOCH":"2025-10-09T06:04:31.888704","MEAN_MOTION":14.98319741,"ECCENTRICITY":0.00035477,"INCLINATION":70.0026,"RA_OF_ASC_NODE":16.4686,"ARG_OF_PERICENTER":271.3521,"MEAN_ANOMALY":88.7231,"EPHEMERIS_TYPE":0,"CLASSIFICATION_TYPE":"U","NORAD_CAT_ID":63080,"ELEMENT_SET_NO":999,"REV_AT_EPOCH":3591,"BSTAR":-0.0008371032,"MEAN_MOTION_DOT":-0.00010065,"MEAN_MOTION_DDOT":0},{"OBJECT_NAME":"STARLINK-32895","OBJECT_ID":"2025-037E","EPOCH":"2025-10-08T23:33:44.531424","MEAN_MOTION":14.98339381,"ECCENTRICITY":0.00024621,"INCLINATION":70.0045,"RA_OF_ASC_NODE":17.1282,"ARG_OF_PERICENTER":275.8097,"MEAN_ANOMALY":84.2781,"EPHEMERIS_TYPE":0,"CLASSIFICATION_TYPE":"U","NORAD_CAT_ID":63081,"ELEMENT_SET_NO":999,"REV_AT_EPOCH":3573,"BSTAR":0.00018665769,"MEAN_MOTION_DOT":2.135e-5,"MEAN_MOTION_DDOT":0},{"OBJECT_NAME":"STARLINK-32933","OBJECT_ID":"2025-037F","EPOCH":"2025-10-09T06:58:35.521824","MEAN_MOTION":14.98333755,"ECCENTRICITY":0.0003672,"INCLINATION":70.0023,"RA_OF_ASC_NODE":16.1931,"ARG_OF_PERICENTER":277.5056,"MEAN_ANOMALY":82.5686,"EPHEMERIS_TYPE":0,"CLASSIFICATION_TYPE":"U","NORAD_CAT_ID":63082,"ELEMENT_SET_NO":999,"REV_AT_EPOCH":3586,"BSTAR":0.00060877354,"MEAN_MOTION_DOT":7.179e-5,"MEAN_MOTION_DDOT":0},{"OBJECT_NAME":"STARLINK-32932","OBJECT_ID":"2025-037G","EPOCH":"2025-10-09T05:28:13.843200","MEAN_MOTION":14.98332654,"ECCENTRICITY":0.00032224,"INCLINATION":70.0038,"RA_OF_ASC_NODE":16.3856,"ARG_OF_PERICENTER":280.3673,"MEAN_ANOMALY":79.7122,"EPHEMERIS_TYPE":0,"CLASSIFICATION_TYPE":"U","NORAD_CAT_ID":63083,"ELEMENT_SET_NO":999,"REV_AT_EPOCH":3577,"BSTAR":0.00036098359,"MEAN_MOTION_DOT":4.217e-5,"MEAN_MOTION_DDOT":0}]
